ONEWEB-0116             
1 48046U 21025E   24330.38585462 -.00000115  00000+0 -34938-3 0  9993
2 48046  87.8933  73.3383 0001774  98.0148 262.1182 13.13469466178986
ONEWEB-0150             
1 48047U 21025F   24330.36047501  .00000378  00000+0  99894-3 0  9990
2 48047  87.8922  73.3528 0001682 109.6172 250.5138 13.13470164178877
ONEWEB-0107             
1 48048U 21025G   24330.36204162  .00000348  00000+0  91771-3 0  9992
2 48048  87.8923  73.3502 0001336 114.6623 245.4645 13.13474413178859
ONEWEB-0101             
1 48049U 21025H   24330.32555404 -.00000189  00000+0 -55227-3 0  9998
2 48049  87.8928  73.3832 0001527 102.6725 257.4574 13.13470579178823
ONEWEB-0113             
1 48050U 21025J   24330.30332598  .00000079  00000+0  18248-3 0  9993
2 48050  87.8930  73.3683 0001702 101.4331 258.6989 13.13474614178903
ONEWEB-0112             
1 48051U 21025K   24330.36683201  .00000295  00000+0  77165-3 0  9993
2 48051  87.8924  73.3465 0001666 104.9687 255.1626 13.13469148178924
ONEWEB-0156             
1 48052U 21025L   24330.30016010  .00000164  00000+0  41491-3 0  9994
2 48052  87.8930  73.3630 0001639 103.5211 256.6101 13.13469429178896
ONEWEB-0161             
1 48053U 21025M   24330.34936782  .00000282  00000+0  73617-3 0  9992
2 48053  87.8929  73.3646 0001474 105.8622 254.2670 13.13472655178834
